FLOCK 4BE-13            
1 60512U 24149AW  26157.18717916  .00019427  00000+0  46345-3 0  9992
2 60512  97.3715 241.4867 0002775 319.5936  40.5105 15.41589695100679
FLOCK 4BE-27            
1 60513U 24149AX  26157.49902582  .00012566  00000+0  38100-3 0  9999
2 60513  97.3821 239.3467 0003431   4.8959 355.2317 15.34260457100506
FLOCK 4BE-9             
1 60514U 24149AY  26157.50319339  .00019861  00000+0  49143-3 0  9998
2 60514  97.3788 241.6738 0002050   5.4023 354.7245 15.40478438100670
FLOCK 4BE-6             
1 60516U 24149BA  26157.19857499  .00019354  00000+0  49812-3 0  9999
2 60516  97.3786 240.7456 0002621 359.0206   1.1034 15.39279445100586
FLOCK 4BE-14            
1 60517U 24149BB  26157.45204503  .00021787  00000+0  53550-3 0  9998
2 60517  97.3693 241.1277 0003341 348.9578  11.1595 15.40659908100670
FLOCK 4BE-1             
1 60518U 24149BC  26157.47909986  .00023151  00000+0  53967-3 0  9997
2 60518  97.3776 242.3943 0003104 346.0211  14.0950 15.42250412100728
FLOCK 4BE-28            
1 60519U 24149BD  26157.50924773  .00023835  00000+0  51456-3 0  9993
2 60519  97.3742 243.1159 0003171 341.1878  18.9253 15.44533736100790
IPERDRONE.0             
1 60520U 24149BE  26157.18714524  .00093306  00000+0  94066-3 0  9994
2 60520  97.3790 249.8701 0002553 256.2183 103.8792 15.65082325101192
TRANSPORTER-11 OBJECT BF
1 60521U 24149BF  26157.18861560  .00260665  00000+0  13679-2 0  9992
2 60521  97.3768 252.3158 0004626 248.2283 111.8492 15.80043635101349
CONNECTA IOT-2          
1 60522U 24149BG  26157.47719729  .00005718  00000+0  23966-3 0  9991
2 60522  97.3834 235.7858 0006589  17.5496 342.5968 15.23885244100267
PTD-R (TYVAK-0127)      
1 60523U 24149BH  26157.57124035  .01157200  76335-3  16721-2 0  9996
2 60523  97.3916 257.4567 0008062 269.4027  90.6331 16.05457535101730
CONNECTA IOT-4          
1 60524U 24149BJ  26157.49962879  .00025472  00000+0  60305-3 0  9998
2 60524  97.3793 241.7467 0004292 336.5963  23.5088 15.41759416100684
ORESAT0.5               
1 60525U 24149BK  26157.49557904  .00024742  00000+0  53131-3 0  9996
2 60525  97.3720 243.3361 0004309 323.7229  36.3726 15.44679477100826
DEIMOS                  
1 60526U 24149BL  26157.45713431  .00024180  00000+0  53422-3 0  9991
2 60526  97.3786 243.4427 0004353 333.2323  26.8700 15.43840912100798
CUAVA-2                 
1 60527U 24149BM  26157.52941841  .00015487  00000+0  44533-3 0  9991
2 60527  97.3722 239.0328 0005802 341.6786  18.4247 15.35872997100530
ERNST                   
1 60528U 24149BN  26157.18197361  .00018725  00000+0  48761-3 0  9999
2 60528  97.3803 240.8217 0005150 348.8484  11.2647 15.38917144100585
TORO                    
1 60530U 24149BQ  26157.13961481  .00002506  00000+0  22634-3 0  9990
2 60530  97.6775 232.0139 0001445  89.9632 270.1755 14.96380406 98306
HYPSO-2                 
1 60531U 24149BR  26157.45185622  .00002557  00000+0  21729-3 0  9991
2 60531  97.6829 233.8705 0001868  54.4250 305.7147 14.98748153 98441
LEMU NGE                
1 60532U 24149BS  26157.47570851  .00002827  00000+0  26428-3 0  9997
2 60532  97.6835 232.6520 0002411  80.6530 279.4963 14.94907699 98359
LEMUR-2-STELLA          
1 60533U 24149BT  26157.49095815  .00015863  00000+0  93724-3 0  9999
2 60533  97.6731 239.9014 0002012  99.4545 260.6912 15.11579016 98886
SATELIOT_2              
1 60534U 24149BU  26157.46065806  .00002076  00000+0  18866-3 0  9990
2 60534  97.6820 232.6128 0001647 101.9880 258.1526 14.96320728 98368
NIGHTJAR                
1 60535U 24149BV  26157.44494990  .00003566  00000+0  29935-3 0  9993
2 60535  97.6866 234.3011 0002510  90.6621 269.4889 14.98970899141263
LEMUR-2-MARHISYAM       
1 60536U 24149BW  26157.20254433  .00015006  00000+0  90038-3 0  9998
2 60536  97.6874 240.0497 0003094 137.6306 222.5163 15.11031638 98828
SATELIOT_4              
1 60537U 24149BX  26157.13940983  .00002464  00000+0  22124-3 0  9998
2 60537  97.6727 231.8321 0003315  84.1371 276.0228 14.96626041 98325
PICO-02A021             
1 60538U 24149BY  26157.18294943  .00006790  00000+0  50696-3 0  9993
2 60538  97.6721 236.1111 0005748  59.7060 300.4733 15.03138149 98082
ICEYE-X43               
1 60539U 24149BZ  26157.15217129  .00005171  00000+0  42393-3 0  9999
2 60539  97.6739 234.2711 0007955 115.0956 245.1093 14.99660196 98461
HAWK-10A                
1 60540U 24149CA  26157.47133726  .00001902  00000+0  17260-3 0  9999
2 60540  97.6882 233.5669 0004669 105.0487 255.1252 14.96476681 98383
UMBRA-09                
1 60541U 24149CB  26157.51982963  .00017125  00000+0  85172-3 0  9991
2 60541  97.6958 244.5458 0000292 330.0947  30.0270 15.17698055 99101
QPS-SAR-8 (AMATERU-IV)  
1 60542U 24149CC  26157.48278290  .00006930  00000+0  50529-3 0  9999
2 60542  97.6668 236.7232 0004705 130.9091 229.2543 15.04033326 98668
ARCTIC WEATHER SATELLITE
1 60543U 24149CD  26157.47450765  .00001069  00000+0  11702-3 0  9996
2 60543  97.6801 228.2460 0003346 124.4206 235.7328 14.89813761 97701
